[{"OBJECT_NAME":"FORMOSAT 7-1","OBJECT_ID":"2019-036L","EPOCH":"2026-03-09T01:58:31.546848","MEAN_MOTION":14.96019979,"ECCENTRICITY":0.00010479,"INCLINATION":23.9993,"RA_OF_ASC_NODE":347.0403,"ARG_OF_PERICENTER":84.2943,"MEAN_ANOMALY":275.7677,"EPHEMERIS_TYPE":0,"CLASSIFICATION_TYPE":"U","NORAD_CAT_ID":44349,"ELEMENT_SET_NO":999,"REV_AT_EPOCH":36964,"BSTAR":0.00036541512,"MEAN_MOTION_DOT":4.503e-5,"MEAN_MOTION_DDOT":0},{"OBJECT_NAME":"STARLINK-6069","OBJECT_ID":"2023-078AP","EPOCH":"2026-03-09T22:42:04.054464","MEAN_MOTION":14.98327874,"ECCENTRICITY":0.00026032,"INCLINATION":70.0001,"RA_OF_ASC_NODE":323.7401,"ARG_OF_PERICENTER":261.2773,"MEAN_ANOMALY":98.8092,"EPHEMERIS_TYPE":0,"CLASSIFICATION_TYPE":"U","NORAD_CAT_ID":56804,"ELEMENT_SET_NO":999,"REV_AT_EPOCH":15388,"BSTAR":-0.00010825386,"MEAN_MOTION_DOT":-1.384e-5,"MEAN_MOTION_DDOT":0}]
